HST                     
1 20580U 90037B   26068.15977042  .00009063  00000+0  30023-3 0  9999
2 20580  28.4717  43.6133 0001837 120.9992 239.0785 15.29473555773239
STARLINK-31449          
1 58966U 24031B   26068.85886699  .00000625  00000+0  33231-4 0  9993
2 58966  53.1608 295.5906 0001233  92.1734 267.9408 15.30190507116566
